EXPRESS-AM5             
1 39487U 13077A   16192.57271588 -.00000292  00000-0  00000+0 0  9994
2 39487   0.0333 160.1403 0000697 212.4501 262.5301  1.00270960  9984
GSAT-14                 
1 39498U 14001A   16191.99351863 -.00000091  00000-0  00000-0 0  9992
2 39498   0.0832 267.2130 0000851 258.5907 194.1843  1.00271119  9055
THAICOM 6               
1 39500U 14002A   16193.11560551 -.00000132  00000-0  00000+0 0  9994
2 39500   0.0656 122.0965 0004417   6.1143 281.3496  1.00272820  9141
TDRS 12                 
1 39504U 14004A   16192.24713935 -.00000282  00000-0  00000+0 0  9995
2 39504   6.3229 336.5920 0002907 199.2443 160.8621  1.00269293  9064
ABS-2                   
1 39508U 14006A   16191.99100696 -.00000100  00000-0  00000+0 0  9995
2 39508   0.0203 332.6252 0003069 139.2382 248.1550  1.00272198  8947
ATHENA-FIDUS            
1 39509U 14006B   16193.09107539  .00000143  00000-0  00000+0 0  9998
2 39509   0.0208  25.9492 0001037  79.1430 254.9193  1.00269879  9121
TURKSAT 4A              
1 39522U 14007A   16193.07941506  .00000135  00000-0  00000+0 0  9993
2 39522   0.0526 267.8261 0000963 268.3503 183.8120  1.00273866  8838
EXPRESS-AT1             
1 39612U 14010A   16192.86993130  .00000067  00000-0  00000-0 0  9998
2 39612   0.0410 216.5431 0000153 339.9877 101.8524  1.00273636  8664
EXPRESS-AT2             
1 39613U 14010B   16192.67113211 -.00000293  00000-0  00000+0 0  9993
2 39613   0.0400 230.7492 0000628  41.4330  38.2715  1.00271753  8499
AMAZONAS 4A             
1 39616U 14011A   16192.36742244 -.00000295  00000-0  00000+0 0  9999
2 39616   0.0681  71.3232 0004597  11.4944 277.2210  1.00271609  8485
ASTRA 5B                
1 39617U 14011B   16193.07410380  .00000144  00000-0  00000+0 0  9994
2 39617   0.0327  33.7304 0002419  73.6093 240.2367  1.00274229  8485
IRNSS-1B                
1 39635U 14017A   16191.88065226  .00000054  00000-0  00000-0 0  9993
2 39635  29.7017 300.2422 0021921 181.3027 178.7303  1.00273819  8204
LUCH 5V                 
1 39727U 14023A   16193.04376563 -.00000277  00000-0  00000+0 0  9998
2 39727   3.3613 299.7872 0001819 205.2916 254.7831  1.00269739526149
KAZSAT 3                
1 39728U 14023B   16193.03371576  .00000050  00000-0  00000+0 0  9995
2 39728   0.0173  61.7631 0000308 101.8577 196.3678  1.00271618  8066
EUTELSAT 3B             
1 39773U 14030A   16192.79752050  .00000008  00000-0  00000+0 0  9998
2 39773   0.0611  23.6484 0002911  51.8913 143.7475  1.00272702  7836
ASIASAT 8               
1 40107U 14046A   16192.60461253 -.00000345  00000-0  00000+0 0  9995
2 40107   0.0341 286.0815 0000895 155.7811 170.0437  1.00273613  7116
ASIASAT 6               
1 40141U 14052A   16192.98033485 -.00000373  00000-0  00000+0 0  9994
2 40141   0.0138 332.3554 0000588  90.6777 339.1014  1.00272887  6783
OPTUS 10                
1 40146U 14054A   16192.74144842 -.00000086  00000-0  00000+0 0  9996
2 40146   0.0388 257.0000 0001587 213.3205 249.6836  1.00271327  6745
MEASAT-3B               
1 40147U 14054B   16191.94503704 -.00000256  00000-0  00000+0 0  9993
2 40147   0.0277 340.7159 0001719  89.2318 290.0564  1.00272858  6782
LUCH (OLYMP)            
1 40258U 14058A   16193.09632669 -.00000022  00000-0  00000+0 0  9992
2 40258   0.0110  59.4208 0000585 245.3955  18.2218  1.00272045  6551
HIMAWARI 8              
1 40267U 14060A   16192.91767088 -.00000286  00000-0  00000+0 0  9991
2 40267   0.0270 102.2551 0000981 357.2179 300.8130  1.00273720  6483
IRNSS-1C                
1 40269U 14061A   16192.68940398 -.00000171  00000-0  00000-0 0  9999
2 40269   3.6910 260.0205 0018364   0.3792 359.8768  1.00268496  6301
INTELSAT 30 (IS-30)     
1 40271U 14062A   16192.40009286 -.00000163  00000-0  00000-0 0  9996
2 40271   0.0180  44.7862 0001927  29.7920 263.1418  1.00271672  6304
ARSAT 1                 
1 40272U 14062B   16193.56295639 -.00000269  00000-0  00000+0 0  9990
2 40272   0.0400 253.7183 0001009 208.1094 318.9160  1.00272208  6516
EXPRESS-AM6             
1 40277U 14064A   16193.18234073  .00000088  00000-0  00000+0 0  9998
2 40277   0.0340 164.5040 0000256 285.0480 318.5721  1.00271562  6297
GSAT-16                 
1 40332U 14078A   16192.04616577  .00000071  00000-0  00000-0 0  9995
2 40332   0.0703  99.1764 0007403 353.7229 267.1713  1.00272613  5751
DIRECTV 14              
1 40333U 14078B   16192.25619192 -.00000138  00000-0  00000+0 0  9999
2 40333   0.0190  30.8233 0001002 331.7411 279.0288  1.00270142  5858
YAMAL 401               
1 40345U 14082A   16192.55115663 -.00000240  00000-0  00000+0 0  9998
2 40345   0.0499 131.9968 0001243 144.4388 300.7889  1.00270342  6021
ASTRA 2G                
1 40364U 14089A   16193.10839493  .00000139  00000-0  00000+0 0  9998
2 40364   0.0269 359.3980 0004456  68.8684 288.3684  1.00274388  5638
FENGYUN 2G              
1 40367U 14090A   16193.03761749 -.00000340  00000-0  00000+0 0  9998
2 40367   1.1394 271.3306 0003716 311.3791 184.9259  1.00273557  5669
INMARSAT 5-F2           
1 40384U 15005A   16192.41115119 -.00000298  00000-0  00000+0 0  9991
2 40384   0.0227  36.4682 0000446 288.5131  56.7738  1.00269421  5290
ABS-3A                  
1 40424U 15010A   16192.20666095 -.00000039  00000-0  00000+0 0  9996
2 40424   0.0246  44.6381 0001306 351.2397 324.1310  1.00270341  5023
EUTELSAT 115 WEST B     
1 40425U 15010B   16191.51943678 -.00000040  00000-0  00000+0 0  9997
2 40425   0.0019 211.7941 0000395 234.5834 273.6270  1.00274547  5044
EXPRESS-AM7             
1 40505U 15012A   16193.18460477  .00000140  00000-0  00000+0 0  9994
2 40505   0.0027   8.4974 0002389  98.8987 288.5553  1.00270284  4989
IRNSS-1D                
1 40547U 15018A   16192.72130287 -.00000325  00000-0  00000-0 0  9995
2 40547  29.6997 300.3740 0022093 181.1874 178.8454  1.00267443  4612
BEIDOU I1-S             
1 40549U 15019A   16192.92788076 -.00000175  00000-0  00000-0 0  9998
2 40549  54.6918 337.6626 0043268 178.9859 200.2443  1.00257402  4707
THOR 7                  
1 40613U 15022A   16192.20039953 -.00000021  00000-0  00000-0 0  9998
2 40613   0.0222 136.8494 0002493 325.9250 257.2395  1.00272827  4445
TURKMENALEM52E/MONACOSAT
1 40617U 15023A   16193.05148499  .00000093  00000-0  00000+0 0  9990
2 40617   0.0290  40.3783 0002389  73.2015 246.4453  1.00268715  4479
DIRECTV 15              
1 40663U 15026A   16192.48308197 -.00000116  00000-0  00000+0 0  9990
2 40663   0.0154  50.7059 0000900 316.2230 353.0589  1.00272519  4153
SKY MEXICO-1            
1 40664U 15026B   16193.41407092 -.00000244  00000-0  00000+0 0  9991
2 40664   0.0174  16.1852 0002087  87.9452 255.8928  1.00270199  4168
METEOSAT-11 (MSG-4)     
1 40732U 15034A   16192.91837681 -.00000038  00000-0  00000+0 0  9992
2 40732   2.4644 255.8486 0000470  68.6640 291.6847  1.00274643  3666
STAR ONE C4             
1 40733U 15034B   16192.43878756 -.00000277  00000-0  00000+0 0  9993
2 40733   0.0198  12.3287 0001620  54.4318 309.9661  1.00271014  3658
INTELSAT 34 (IS-34)     
1 40874U 15039A   16190.23026192 -.00000303  00000-0  00000-0 0  9990
2 40874   0.0039  28.7244 0000757 309.6229 335.6243  1.00269597  3260
EUTELSAT 8 WEST B       
1 40875U 15039B   16193.21801179 -.00000076  00000-0  00000+0 0  9994
2 40875   0.0627 356.3378 0002638 105.2009 258.4793  1.00271510  3325
GSAT-6                  
1 40880U 15041A   16191.96835408 -.00000178  00000-0  00000-0 0  9999
2 40880   0.5389 271.4775 0005926 354.7817  93.6584  1.00272261  3253
INMARSAT 5-F3           
1 40882U 15042A   16192.69820662  .00000038  00000-0  00000+0 0  9992
2 40882   0.0221  39.8163 0000272  13.4800 306.7062  1.00269419  3173
TJS-1                   
1 40892U 15046A   16193.55454378 -.00000165  00000-0  00000+0 0  9992
2 40892   0.0865  88.4522 0001530 329.3323 226.7766  1.00271137  3176
EXPRESS-AM8             
1 40895U 15048A   16193.14770625 -.00000122  00000-0  00000+0 0  9991
2 40895   0.0318 208.8374 0000296 260.0255 219.7631  1.00271252  2998
BEIDOU I2-S             
1 40938U 15053A   16192.71788216 -.00000171  00000-0  00000+0 0  9996
2 40938  54.6672 300.5310 0044373 168.5149 174.6644  1.00283618  2972
SKY MUSTER (NBN1A)      
1 40940U 15054A   16189.81548154 -.00000298  00000-0  00000-0 0  9993
2 40940   0.0197  18.3310 0001672  90.5051 251.1820  1.00269484  2889
ARSAT 2                 
1 40941U 15054B   16191.42585797 -.00000240  00000-0  00000+0 0  9994
2 40941   0.0345 290.3439 0001277 180.5209 249.1335  1.00276137  2921
MORELOS 3               
1 40946U 15056A   16192.43133121 -.00000056  00000-0  00000+0 0  9998
2 40946   6.8331 330.8533 0003429 188.0868 172.0216  1.00272169  2906
APSTAR 9                
1 40982U 15059A   16192.67067444 -.00000278  00000-0  00000+0 0  9997
2 40982   0.0320 261.4442 0000497  40.9972   9.9851  1.00272671  2767
TURKSAT 4B              
1 40984U 15060A   16193.05741524  .00000104  00000-0  00000+0 0  9999
2 40984   0.0149  45.7086 0002457  56.0292 258.2775  1.00272412  2730
CHINASAT 2C (ZX 2C)     
1 41021U 15063A   16192.02663483 -.00000337  00000-0  00000+0 0  9997
2 41021   0.0766 243.4248 0001228 235.3335 282.6077  1.00269141  2629
GSAT-15                 
1 41028U 15065A   16192.68453347 -.00000270  00000-0  00000+0 0  9990
2 41028   0.0660 272.8076 0002249 118.6347 237.6025  1.00271222  2473
BADR-7 (ARABSAT-6B)     
1 41029U 15065B   16193.10825968  .00000134  00000-0  00000+0 0  9999
2 41029   0.0461 227.8810 0002655 356.7026 129.8085  1.00274789  2524
LAOSAT 1                
1 41034U 15067A   16192.92132781 -.00000354  00000-0  00000-0 0  9996
2 41034   0.0309 200.5354 0006835 311.5800 237.3085  1.00272827  2464
TELSTAR 12V             
1 41036U 15068A   16192.88364553 -.00000130  00000-0  00000+0 0  9999
2 41036   0.0253 176.9424 0001361 291.4608 123.9068  1.00271276  2344
